QIANFAN-73              
1 63159U 25046A   25344.90188680  .00000154  00000+0  22012-3 0  9998
2 63159  88.9759 320.2128 0016379 124.4561 235.8141 13.50976650 47163
QIANFAN-74              
1 63160U 25046B   25344.88527942  .00000150  00000+0  21417-3 0  9999
2 63160  88.9760 320.1031 0001988  79.0711 281.0664 13.50978963 47220
QIANFAN-75              
1 63161U 25046C   25344.94663296  .00000184  00000+0  26574-3 0  9996
2 63161  88.9762 320.3304 0017423 127.4043 232.8698 13.50977935 47101
QIANFAN-76              
1 63162U 25046D   25344.94324728  .00000112  00000+0  15439-3 0  9990
2 63162  88.9760 320.3115 0014955 127.1914 233.0605 13.50970091 47119
QIANFAN-77              
1 63163U 25046E   25344.89389954  .00000422  00000+0  29710-3 0  9998
2 63163  88.9762 318.3386 0017006  86.2583 274.0538 13.96086628 48199
QIANFAN-78              
1 63164U 25046F   25344.91008916  .00000145  00000+0  20551-3 0  9994
2 63164  88.9760 320.1789 0016280 129.8216 230.4370 13.50976811 47186
QIANFAN-79              
1 63165U 25046G   25344.93875362  .00000163  00000+0  23331-3 0  9993
2 63165  88.9763 320.2834 0016014 128.0573 232.2026 13.50978425 47130
QIANFAN-80              
1 63166U 25046H   25344.88120317  .00000183  00000+0  26393-3 0  9994
2 63166  88.9761 319.9962 0014884 131.7156 228.5271 13.50976019 47280
